[{"OBJECT_NAME":"HYPERFIELD-1A","OBJECT_ID":"2024-149CY","EPOCH":"2026-03-09T18:21:25.814304","MEAN_MOTION":15.29681349,"ECCENTRICITY":0.00038648,"INCLINATION":97.3842,"RA_OF_ASC_NODE":149.5066,"ARG_OF_PERICENTER":313.7844,"MEAN_ANOMALY":46.3076,"EPHEMERIS_TYPE":0,"CLASSIFICATION_TYPE":"U","NORAD_CAT_ID":60562,"ELEMENT_SET_NO":999,"REV_AT_EPOCH":8683,"BSTAR":0.00030052114,"MEAN_MOTION_DOT":8.569e-5,"MEAN_MOTION_DDOT":0},{"OBJECT_NAME":"STARLINK-36127","OBJECT_ID":"2025-286L","EPOCH":"2026-03-09T05:08:36.120480","MEAN_MOTION":15.3019741,"ECCENTRICITY":9.617e-5,"INCLINATION":53.1615,"RA_OF_ASC_NODE":0.6854,"ARG_OF_PERICENTER":109.5307,"MEAN_ANOMALY":250.5798,"EPHEMERIS_TYPE":0,"CLASSIFICATION_TYPE":"U","NORAD_CAT_ID":66935,"ELEMENT_SET_NO":999,"REV_AT_EPOCH":1534,"BSTAR":-6.5778469e-5,"MEAN_MOTION_DOT":-2.306e-5,"MEAN_MOTION_DDOT":0}]
